BEIDOU-3S IGSO-1S       
1 40549U 15019A   26183.80025122 -.00000190  00000+0  00000+0 0  9997
2 40549  49.1798 295.2769 0076860 219.1125 144.2493  1.00680073 41232
NAVSTAR 74 (USA 262)    
1 40730U 15033A   26189.16213804 -.00000003  00000+0  00000+0 0  9999
2 40730  53.9664 266.2211 0115246  30.2795 330.4465  2.00555133 80416
BEIDOU-3S M2S           
1 40748U 15037A   26188.72745806 -.00000064  00000+0  00000+0 0  9992
2 40748  54.8512 301.3397 0009225 257.5297 102.3896  1.86232376 74504
BEIDOU-3S M1S           
1 40749U 15037B   26189.46923661 -.00000065  00000+0  00000+0 0  9993
2 40749  54.8472 301.3010 0002900  63.4751 296.5756  1.86254806 74529
GSAT0206 (GALILEO 10)   
1 40890U 15045B   26188.98768849  .00000082  00000+0  00000+0 0  9998
2 40890  54.9404 221.0297 0001927 331.1596  28.9023  1.70473579 67391
BEIDOU-3S IGSO-2S       
1 40938U 15053A   26189.62227942 -.00000108  00000+0  00000+0 0  9996
2 40938  49.1884 258.5277 0066069 192.9058 153.0220  1.00254949 39567
NAVSTAR 75 (USA 265)    
1 41019U 15062A   26189.21731243 -.00000051  00000+0  00000+0 0  9993
2 41019  56.9736  30.0016 0112566 230.9199 128.1234  2.00566927 78257
GSAT-15                 
1 41028U 15065A   26189.58931568 -.00000243  00000+0  00000+0 0  9991
2 41028   0.0181 288.3082 0003803 160.0831 143.8073  1.00272159 39017
GSAT0209 (GALILEO 12)   
1 41174U 15079A   26189.15594789 -.00000008  00000+0  00000+0 0  9990
2 41174  55.8390 100.6867 0004997 350.6288   9.3765  1.70473596 65135
GSAT0208 (GALILEO 11)   
1 41175U 15079B   26188.20316542 -.00000003  00000+0  00000+0 0  9990
2 41175  55.8371 100.7098 0004195  13.7405 346.2886  1.70473232 65538
IRNSS-1E                
1 41241U 16003A   26189.57021647 -.00000308  00000+0  00000+0 0  9990
2 41241  33.2793  59.4398 0019228 178.8549   5.2186  1.00268726 38299
NAVSTAR 76 (USA 266)    
1 41328U 16007A   26188.81043076 -.00000023  00000+0  00000+0 0  9990
2 41328  55.5362  88.6419 0096583 247.6320 111.3782  2.00575851 76253
COSMOS 2514 [GLONASS-M] 
1 41330U 16008A   26189.40188574 -.00000053  00000+0  00000+0 0  9996
2 41330  65.0077 312.2788 0012078 200.3602 159.6030  2.13102540 81078
BEIDOU-2 IGSO-6         
1 41434U 16021A   26177.11016981 -.00000145  00000+0  00000+0 0  9995
2 41434  60.2385  37.9495 0057558 231.0163 137.2672  1.00258926 37578
IRNSS-1G                
1 41469U 16027A   26188.66973470 -.00000321  00000+0  00000+0 0  9992
2 41469   5.2447  97.0006 0005975   9.1698 190.2027  1.00274910 37385
GSAT0211 (GALILEO 14)   
1 41549U 16030A   26187.74023406  .00000078  00000+0  00000+0 0  9996
2 41549  55.0912 221.1568 0003151 320.2571  39.7906  1.70473798 63001
GSAT0210 (GALILEO 13)   
1 41550U 16030B   26188.58407304  .00000081  00000+0  00000+0 0  9998
2 41550  55.0891 221.1315 0007820 257.5040 102.4802  1.70473798 63013
BEIDOU-2 G7             
1 41586U 16037A   26189.59269569 -.00000339  00000+0  00000+0 0  9992
2 41586   1.7696  69.4677 0006330   6.3521 174.5396  1.00265655  7106
EUTELSAT 117 WEST B     
1 41589U 16038B   26188.69218148  .00000003  00000+0  00000+0 0  9990
2 41589   0.0043 194.6007 0000098 339.2111 244.0229  1.00274900 36869
GSAT0207 (GALILEO 15)   
1 41859U 16069A   26187.10285798  .00000000  00000+0  00000+0 0  9991
2 41859  55.5088 100.5629 0004433 341.1065  18.8968  1.70473349 59728
GSAT0212 (GALILEO 16)   
1 41860U 16069B   26188.12942102 -.00000003  00000+0  00000+0 0  9999
2 41860  55.5076 100.5296 0004380   9.6218 350.4046  1.70473650 59990
GSAT0213 (GALILEO 17)   
1 41861U 16069C   26187.32341799  .00000000  00000+0  00000+0 0  9992
2 41861  55.5092 100.5598 0004628 315.4701  44.5123  1.70474232 59842
GSAT0214 (GALILEO 18)   
1 41862U 16069D   26187.46967801 -.00000001  00000+0  00000+0 0  9998
2 41862  55.5080 100.5485 0003807 326.3091  33.6861  1.70473830 59971
SES-15                  
1 42709U 17026A   26189.54524082  .00000075  00000+0  00000+0 0  9994
2 42709   0.0249 326.7931 0000443 132.4110 254.4170  1.00267138  7641
QZS-2 (MICHIBIKI-2)     
1 42738U 17028A   26188.49126786 -.00000100  00000+0  00000+0 0  9990
2 42738  39.3970 242.8544 0758232 269.5081  92.2444  1.00278715  7838
QZS-3 (MICHIBIKI-3)     
1 42917U 17048A   26189.59594112 -.00000333  00000+0  00000+0 0  9993
2 42917   0.0774 220.7789 0002580 260.1452 147.1435  1.00275716 32473
COSMOS 2522 [GLONASS-M] 
1 42939U 17055A   26189.23956900  .00000125  00000+0  00000+0 0  9991
2 42939  64.0805 191.1677 0010937 240.8156 119.1060  2.13101984 68427
QZS-4 (MICHIBIKI-4)     
1 42965U 17062A   26189.31127122 -.00000310  00000+0  00000+0 0  9990
2 42965  40.0964 343.2180 0747319 268.4114 285.3906  1.00292396 32010
BEIDOU-3 M1             
1 43001U 17069A   26189.07433231 -.00000045  00000+0  00000+0 0  9998
2 43001  56.7093  62.3976 0009478 327.6447  32.3589  1.86231359 58993
BEIDOU-3 M2             
1 43002U 17069B   26187.93921887 -.00000042  00000+0  00000+0 0  9998
2 43002  56.7078  62.4704 0008592 355.0487   5.0065  1.86231060 58964
GSAT0215 (GALILEO 19)   
1 43055U 17079A   26189.13247542  .00000083  00000+0  00000+0 0  9994
2 43055  55.0687 220.9299 0003568 269.9815  90.0506  1.70474226 53343
